{"type": "FeatureCollection", "features": [{"type": "Feature", "properties": {"norad_id": 50032, "name": "COSMOS 1408 DEB", "group": "cosmos-1408-debris", "lat": -8.53972356237809, "lon": 62.38664201168559, "alt_km": 439.31874328453614, "timestamp": "2025-12-07T20:38:14.334419+00:00", "meta": {"OBJECT_NAME": "COSMOS 1408 DEB", "OBJECT_ID": "1982-092RU", "EPOCH": "2025-12-07T05:08:11.743584", "MEAN_MOTION": 15.45610344, "ECCENTRICITY": 0.00147981, "INCLINATION": 82.5646, "RA_OF_ASC_NODE": 64.1721, "ARG_OF_PERICENTER": 230.0224, "MEAN_ANOMALY": 129.9726, "EPHEMERIS_TYPE": 0, "CLASSIFICATION_TYPE": "U", "NORAD_CAT_ID": 50032, "ELEMENT_SET_NO": 999, "REV_AT_EPOCH": 22518, "BSTAR": 0.00016383626, "MEAN_MOTION_DOT": 7.955e-05, "MEAN_MOTION_DDOT": 0}, "tle": {"line1": "1 50032U 82092RU  25341.21402481  .00007955  00000+0  16384-3 0  9998", "line2": "2 50032  82.5646  64.1721 0014798 230.0224 129.9726 15.45610344225183"}}, "geometry": {"type": "Point", "coordinates": [62.38664201168559, -8.53972356237809]}}, {"type": "Feature", "properties": {"norad_id": 50058, "name": "COSMOS 1408 DEB", "group": "cosmos-1408-debris", "lat": -53.13935654096021, "lon": -95.58845106811631, "alt_km": 389.21302373232083, "timestamp": "2025-12-07T20:38:14.334440+00:00", "meta": {"OBJECT_NAME": "COSMOS 1408 DEB", "OBJECT_ID": "1982-092SW", "EPOCH": "2025-12-06T23:40:31.712160", "MEAN_MOTION": 15.636007, "ECCENTRICITY": 0.00163199, "INCLINATION": 82.6134, "RA_OF_ASC_NODE": 75.3606, "ARG_OF_PERICENTER": 119.213, "MEAN_ANOMALY": 241.0763, "EPHEMERIS_TYPE": 0, "CLASSIFICATION_TYPE": "U", "NORAD_CAT_ID": 50058, "ELEMENT_SET_NO": 999, "REV_AT_EPOCH": 22714, "BSTAR": 0.00046909944, "MEAN_MOTION_DOT": 0.00044, "MEAN_MOTION_DDOT": 0}, "tle": {"line1": "1 50058U 82092SW  25340.98647815  .00044000  00000+0  46910-3 0  9991", "line2": "2 50058  82.6134  75.3606 0016319 119.2130 241.0763 15.63600700227145"}}, "geometry": {"type": "Point", "coordinates": [-95.58845106811631, -53.13935654096021]}}, {"type": "Feature", "properties": {"norad_id": 50404, "name": "COSMOS 1408 DEB", "group": "cosmos-1408-debris", "lat": 29.929173990907902, "lon": 35.50180226697902, "alt_km": 475.85420658945986, "timestamp": "2025-12-07T20:38:14.334453+00:00", "meta": {"OBJECT_NAME": "COSMOS 1408 DEB", "OBJECT_ID": "1982-092ADS", "EPOCH": "2025-12-07T02:30:04.868064", "MEAN_MOTION": 15.12644059, "ECCENTRICITY": 0.01742329, "INCLINATION": 82.204, "RA_OF_ASC_NODE": 220.7981, "ARG_OF_PERICENTER": 218.3563, "MEAN_ANOMALY": 140.5177, "EPHEMERIS_TYPE": 0, "CLASSIFICATION_TYPE": "U", "NORAD_CAT_ID": 50404, "ELEMENT_SET_NO": 999, "REV_AT_EPOCH": 21108, "BSTAR": 0.0038217679, "MEAN_MOTION_DOT": 0.00098122, "MEAN_MOTION_DDOT": 0}, "tle": {"line1": "1 50404U 82092ADS 25341.10422301  .00098122  00000+0  38218-2 0  9997", "line2": "2 50404  82.2040 220.7981 0174232 218.3563 140.5177 15.12644059211081"}}, "geometry": {"type": "Point", "coordinates": [35.50180226697902, 29.929173990907902]}}, {"type": "Feature", "properties": {"norad_id": 50621, "name": "COSMOS 1408 DEB", "group": "cosmos-1408-debris", "lat": 19.43833646188251, "lon": 81.89944565013859, "alt_km": 415.66698516938595, "timestamp": "2025-12-07T20:38:14.334464+00:00", "meta": {"OBJECT_NAME": "COSMOS 1408 DEB", "OBJECT_ID": "1982-092ALR", "EPOCH": "2025-12-06T05:58:21.140256", "MEAN_MOTION": 15.56160395, "ECCENTRICITY": 0.00287722, "INCLINATION": 82.5723, "RA_OF_ASC_NODE": 80.9361, "ARG_OF_PERICENTER": 176.4358, "MEAN_ANOMALY": 183.7108, "EPHEMERIS_TYPE": 0, "CLASSIFICATION_TYPE": "U", "NORAD_CAT_ID": 50621, "ELEMENT_SET_NO": 999, "REV_AT_EPOCH": 22149, "BSTAR": 0.00059401028, "MEAN_MOTION_DOT": 0.00042512, "MEAN_MOTION_DDOT": 0}, "tle": {"line1": "1 50621U 82092ALR 25340.24885579  .00042512  00000+0  59401-3 0  9992", "line2": "2 50621  82.5723  80.9361 0028772 176.4358 183.7108 15.56160395221497"}}, "geometry": {"type": "Point", "coordinates": [81.89944565013859, 19.43833646188251]}}]}